IRIDIUM 126             
1 42809U 17039G   25145.93336768  .00000044  00000+0  86730-5 0  9991
2 42809  86.3978 155.5181 0002294  96.3881 263.7576 14.34217765414447
IRIDIUM 124             
1 42810U 17039H   25145.83965057  .00000226  00000+0  61248-4 0  9999
2 42810  86.4475  92.3124 0002651  84.4040 275.7464 14.43275368419244
IRIDIUM 128             
1 42811U 17039J   25145.85433863  .00000059  00000+0  14170-4 0  9993
2 42811  86.4006 187.0166 0002737  89.3981 270.7529 14.34217898414466
IRIDIUM 121             
1 42812U 17039K   25145.95239272 -.00000049  00000+0 -24418-4 0  9990
2 42812  86.3983 155.5352 0002263  86.4965 273.6490 14.34216933414324
IRIDIUM 133             
1 42955U 17061A   25145.81628225  .00000014  00000+0 -20353-5 0  9994
2 42955  86.4012 187.1403 0002279  94.3443 265.8013 14.34217532399254
IRIDIUM 100             
1 42956U 17061B   25145.94948508  .00000213  00000+0  69142-4 0  9996
2 42956  86.4004 187.0127 0002516  96.1465 264.0017 14.34214572399274
IRIDIUM 122             
1 42957U 17061C   25145.56892136  .00000101  00000+0  29001-4 0  9996
2 42957  86.4006 187.1705 0002421  95.4727 264.6745 14.34218037399227
IRIDIUM 129             
1 42958U 17061D   25145.66405861  .00000109  00000+0  31805-4 0  9996
2 42958  86.4006 187.1936 0001902  95.1281 265.0132 14.34218082399257
